[{"OBJECT_NAME":"BRISAT","OBJECT_ID":"2016-039A","EPOCH":"2023-09-23T15:35:28.983264","MEAN_MOTION":1.00272348,"ECCENTRICITY":0.0002248,"INCLINATION":0.0177,"RA_OF_ASC_NODE":214.6467,"ARG_OF_PERICENTER":315.2048,"MEAN_ANOMALY":216.7663,"EPHEMERIS_TYPE":0,"CLASSIFICATION_TYPE":"U","NORAD_CAT_ID":41591,"ELEMENT_SET_NO":999,"REV_AT_EPOCH":2664,"BSTAR":0,"MEAN_MOTION_DOT":-2.0e-6,"MEAN_MOTION_DDOT":0},{"OBJECT_NAME":"ECHOSTAR 18","OBJECT_ID":"2016-039B","EPOCH":"2023-09-23T17:58:33.060000","MEAN_MOTION":1.00269345,"ECCENTRICITY":0.0001617,"INCLINATION":0.0243,"RA_OF_ASC_NODE":163.5753,"ARG_OF_PERICENTER":14.6074,"MEAN_ANOMALY":32.4489,"EPHEMERIS_TYPE":0,"CLASSIFICATION_TYPE":"U","NORAD_CAT_ID":41592,"ELEMENT_SET_NO":999,"REV_AT_EPOCH":2661,"BSTAR":0,"MEAN_MOTION_DOT":-2.86e-6,"MEAN_MOTION_DDOT":0},{"OBJECT_NAME":"MUOS-5","OBJECT_ID":"2016-041A","EPOCH":"2023-09-23T16:02:15.657792","MEAN_MOTION":1.00271247,"ECCENTRICITY":0.0200714,"INCLINATION":4.5232,"RA_OF_ASC_NODE":297.8665,"ARG_OF_PERICENTER":246.9176,"MEAN_ANOMALY":313.0693,"EPHEMERIS_TYPE":0,"CLASSIFICATION_TYPE":"U","NORAD_CAT_ID":41622,"ELEMENT_SET_NO":999,"REV_AT_EPOCH":2706,"BSTAR":0,"MEAN_MOTION_DOT":-1.31e-6,"MEAN_MOTION_DDOT":0},{"OBJECT_NAME":"TIANTONG-1 1","OBJECT_ID":"2016-048A","EPOCH":"2023-09-23T14:14:34.001376","MEAN_MOTION":1.00271275,"ECCENTRICITY":0.0003038,"INCLINATION":2.3663,"RA_OF_ASC_NODE":19.4061,"ARG_OF_PERICENTER":282.0357,"MEAN_ANOMALY":15.8013,"EPHEMERIS_TYPE":0,"CLASSIFICATION_TYPE":"U","NORAD_CAT_ID":41725,"ELEMENT_SET_NO":999,"REV_AT_EPOCH":2626,"BSTAR":0,"MEAN_MOTION_DOT":-3.2e-6,"MEAN_MOTION_DDOT":0},{"OBJECT_NAME":"JCSAT-16","OBJECT_ID":"2016-050A","EPOCH":"2023-09-23T12:02:17.248128","MEAN_MOTION":1.00270626,"ECCENTRICITY":8.68e-5,"INCLINATION":0.0238,"RA_OF_ASC_NODE":110.6098,"ARG_OF_PERICENTER":106.8013,"MEAN_ANOMALY":101.2658,"EPHEMERIS_TYPE":0,"CLASSIFICATION_TYPE":"U","NORAD_CAT_ID":41729,"ELEMENT_SET_NO":999,"REV_AT_EPOCH":2606,"BSTAR":0,"MEAN_MOTION_DOT":-3.09e-6,"MEAN_MOTION_DDOT":0},{"OBJECT_NAME":"USA 270","OBJECT_ID":"2016-052A","EPOCH":"2023-09-15T07:53:53.560896","MEAN_MOTION":1.00165983,"ECCENTRICITY":0.0001161,"INCLINATION":1.6007,"RA_OF_ASC_NODE":90.0571,"ARG_OF_PERICENTER":186.7014,"MEAN_ANOMALY":313.5717,"EPHEMERIS_TYPE":0,"CLASSIFICATION_TYPE":"U","NORAD_CAT_ID":41744,"ELEMENT_SET_NO":999,"REV_AT_EPOCH":1804,"BSTAR":0,"MEAN_MOTION_DOT":-3.6e-6,"MEAN_MOTION_DDOT":0},{"OBJECT_NAME":"USA 271","OBJECT_ID":"2016-052B","EPOCH":"2023-09-15T00:42:50.978880","MEAN_MOTION":1.00151814,"ECCENTRICITY":0.0001688,"INCLINATION":1.5721,"RA_OF_ASC_NODE":90.0154,"ARG_OF_PERICENTER":133.6825,"MEAN_ANOMALY":194.9467,"EPHEMERIS_TYPE":0,"CLASSIFICATION_TYPE":"U","NORAD_CAT_ID":41745,"ELEMENT_SET_NO":999,"REV_AT_EPOCH":1783,"BSTAR":0,"MEAN_MOTION_DOT":1.05e-6,"MEAN_MOTION_DDOT":0},{"OBJECT_NAME":"INTELSAT 36 (IS-36)","OBJECT_ID":"2016-053A","EPOCH":"2023-09-23T08:24:42.628896","MEAN_MOTION":1.00270806,"ECCENTRICITY":0.0002425,"INCLINATION":0.0134,"RA_OF_ASC_NODE":143.1048,"ARG_OF_PERICENTER":234.0318,"MEAN_ANOMALY":179.4841,"EPHEMERIS_TYPE":0,"CLASSIFICATION_TYPE":"U","NORAD_CAT_ID":41747,"ELEMENT_SET_NO":999,"REV_AT_EPOCH":2594,"BSTAR":0,"MEAN_MOTION_DOT":-2.7e-7,"MEAN_MOTION_DDOT":0},{"OBJECT_NAME":"INTELSAT 33E (IS-33E)","OBJECT_ID":"2016-053B","EPOCH":"2023-09-24T03:09:12.407904","MEAN_MOTION":1.0027158,"ECCENTRICITY":0.0001935,"INCLINATION":0.0156,"RA_OF_ASC_NODE":251.5357,"ARG_OF_PERICENTER":277.8352,"MEAN_ANOMALY":300.6422,"EPHEMERIS_TYPE":0,"CLASSIFICATION_TYPE":"U","NORAD_CAT_ID":41748,"ELEMENT_SET_NO":999,"REV_AT_EPOCH":2622,"BSTAR":0,"MEAN_MOTION_DOT":4.3e-7,"MEAN_MOTION_DDOT":0},{"OBJECT_NAME":"INSAT-3DR","OBJECT_ID":"2016-054A","EPOCH":"2023-09-24T01:20:42.612864","MEAN_MOTION":1.00271713,"ECCENTRICITY":0.0012201,"INCLINATION":0.0729,"RA_OF_ASC_NODE":87.2321,"ARG_OF_PERICENTER":175.8881,"MEAN_ANOMALY":193.719,"EPHEMERIS_TYPE":0,"CLASSIFICATION_TYPE":"U","NORAD_CAT_ID":41752,"ELEMENT_SET_NO":999,"REV_AT_EPOCH":2580,"BSTAR":0,"MEAN_MOTION_DOT":-8.3e-7,"MEAN_MOTION_DDOT":0},{"OBJECT_NAME":"GSAT-18","OBJECT_ID":"2016-060A","EPOCH":"2023-09-24T01:20:42.612864","MEAN_MOTION":1.00271435,"ECCENTRICITY":4.49e-5,"INCLINATION":0.0151,"RA_OF_ASC_NODE":126.3509,"ARG_OF_PERICENTER":261.2645,"MEAN_ANOMALY":69.2035,"EPHEMERIS_TYPE":0,"CLASSIFICATION_TYPE":"U","NORAD_CAT_ID":41793,"ELEMENT_SET_NO":999,"REV_AT_EPOCH":2553,"BSTAR":0,"MEAN_MOTION_DOT":-8.2e-7,"MEAN_MOTION_DDOT":0},{"OBJECT_NAME":"SKY MUSTER 2 (NBN1B)","OBJECT_ID":"2016-060B","EPOCH":"2023-09-23T17:36:42.402240","MEAN_MOTION":1.00271585,"ECCENTRICITY":0.0001567,"INCLINATION":0.0164,"RA_OF_ASC_NODE":241.7825,"ARG_OF_PERICENTER":286.0098,"MEAN_ANOMALY":243.5083,"EPHEMERIS_TYPE":0,"CLASSIFICATION_TYPE":"U","NORAD_CAT_ID":41794,"ELEMENT_SET_NO":999,"REV_AT_EPOCH":2557,"BSTAR":0,"MEAN_MOTION_DOT":-2.48e-6,"MEAN_MOTION_DDOT":0},{"OBJECT_NAME":"HIMAWARI-9","OBJECT_ID":"2016-064A","EPOCH":"2023-09-23T12:03:39.953664","MEAN_MOTION":1.00270978,"ECCENTRICITY":7.86e-5,"INCLINATION":0.0178,"RA_OF_ASC_NODE":159.8519,"ARG_OF_PERICENTER":8.743,"MEAN_ANOMALY":155.1977,"EPHEMERIS_TYPE":0,"CLASSIFICATION_TYPE":"U","NORAD_CAT_ID":41836,"ELEMENT_SET_NO":999,"REV_AT_EPOCH":2519,"BSTAR":0,"MEAN_MOTION_DOT":-2.78e-6,"MEAN_MOTION_DDOT":0},{"OBJECT_NAME":"SHIJIAN-17 (SJ-17)","OBJECT_ID":"2016-065A","EPOCH":"2023-09-23T19:40:10.962912","MEAN_MOTION":1.00271041,"ECCENTRICITY":0.0003232,"INCLINATION":3.1965,"RA_OF_ASC_NODE":84.4908,"ARG_OF_PERICENTER":130.6567,"MEAN_ANOMALY":242.6003,"EPHEMERIS_TYPE":0,"CLASSIFICATION_TYPE":"U","NORAD_CAT_ID":41838,"ELEMENT_SET_NO":999,"REV_AT_EPOCH":2523,"BSTAR":0,"MEAN_MOTION_DOT":-1.12e-6,"MEAN_MOTION_DDOT":0},{"OBJECT_NAME":"GOES 16","OBJECT_ID":"2016-071A","EPOCH":"2023-09-23T12:35:42.765792","MEAN_MOTION":1.00270334,"ECCENTRICITY":5.87e-5,"INCLINATION":0.072,"RA_OF_ASC_NODE":286.9697,"ARG_OF_PERICENTER":288.8589,"MEAN_ANOMALY":260.0093,"EPHEMERIS_TYPE":0,"CLASSIFICATION_TYPE":"U","NORAD_CAT_ID":41866,"ELEMENT_SET_NO":999,"REV_AT_EPOCH":2510,"BSTAR":0,"MEAN_MOTION_DOT":-2.51e-6,"MEAN_MOTION_DDOT":0},{"OBJECT_NAME":"TIANLIAN 1-04","OBJECT_ID":"2016-072A","EPOCH":"2023-09-23T12:53:25.447776","MEAN_MOTION":1.00272034,"ECCENTRICITY":0.0029622,"INCLINATION":0.0588,"RA_OF_ASC_NODE":244.0852,"ARG_OF_PERICENTER":261.692,"MEAN_ANOMALY":226.4926,"EPHEMERIS_TYPE":0,"CLASSIFICATION_TYPE":"U","NORAD_CAT_ID":41869,"ELEMENT_SET_NO":999,"REV_AT_EPOCH":2531,"BSTAR":0,"MEAN_MOTION_DOT":2.8e-7,"MEAN_MOTION_DDOT":0},{"OBJECT_NAME":"WGS F8 (USA 272)","OBJECT_ID":"2016-075A","EPOCH":"2023-09-23T22:27:42.905664","MEAN_MOTION":1.00270613,"ECCENTRICITY":1.2e-5,"INCLINATION":0.0129,"RA_OF_ASC_NODE":103.3248,"ARG_OF_PERICENTER":85.2733,"MEAN_ANOMALY":300.6397,"EPHEMERIS_TYPE":0,"CLASSIFICATION_TYPE":"U","NORAD_CAT_ID":41879,"ELEMENT_SET_NO":999,"REV_AT_EPOCH":2492,"BSTAR":0,"MEAN_MOTION_DOT":-2.07e-6,"MEAN_MOTION_DDOT":0}]