BRISAT                  
1 41591U 16039A   23266.64964101 -.00000200  00000+0  00000+0 0  9990
2 41591   0.0177 214.6467 0002248 315.2048 216.7663  1.00272348 26642
ECHOSTAR 18             
1 41592U 16039B   23266.74899375 -.00000286  00000+0  00000+0 0  9996
2 41592   0.0243 163.5753 0001617  14.6074  32.4489  1.00269345 26614
MUOS-5                  
1 41622U 16041A   23266.66823678 -.00000131  00000+0  00000+0 0  9996
2 41622   4.5232 297.8665 0200714 246.9176 313.0693  1.00271247 27069
TIANTONG-1 1            
1 41725U 16048A   23266.59344909 -.00000320  00000+0  00000+0 0  9994
2 41725   2.3663  19.4061 0003038 282.0357  15.8013  1.00271275 26262
JCSAT-16                
1 41729U 16050A   23266.50158852 -.00000309  00000+0  00000+0 0  9999
2 41729   0.0238 110.6098 0000868 106.8013 101.2658  1.00270626 26065
USA 270                 
1 41744U 16052A   23258.32909214 -.00000360  00000+0  00000+0 0  9992
2 41744   1.6007  90.0571 0001161 186.7014 313.5717  1.00165983 18047
USA 271                 
1 41745U 16052B   23258.02975670  .00000105  00000+0  00000+0 0  9995
2 41745   1.5721  90.0154 0001688 133.6825 194.9467  1.00151814 17839
INTELSAT 36 (IS-36)     
1 41747U 16053A   23266.35049339 -.00000027  00000+0  00000+0 0  9991
2 41747   0.0134 143.1048 0002425 234.0318 179.4841  1.00270806 25946
INTELSAT 33E (IS-33E)   
1 41748U 16053B   23267.13139361  .00000043  00000+0  00000+0 0  9991
2 41748   0.0156 251.5357 0001935 277.8352 300.6422  1.00271580 26221
INSAT-3DR               
1 41752U 16054A   23267.05604876 -.00000083  00000+0  00000+0 0  9991
2 41752   0.0729  87.2321 0012201 175.8881 193.7190  1.00271713 25803
GSAT-18                 
1 41793U 16060A   23267.05604876 -.00000082  00000+0  00000+0 0  9992
2 41793   0.0151 126.3509 0000449 261.2645  69.2035  1.00271435 25535
SKY MUSTER 2 (NBN1B)    
1 41794U 16060B   23266.73382410 -.00000248  00000+0  00000+0 0  9998
2 41794   0.0164 241.7825 0001567 286.0098 243.5083  1.00271585 25572
HIMAWARI-9              
1 41836U 16064A   23266.50254576 -.00000278  00000+0  00000+0 0  9998
2 41836   0.0178 159.8519 0000786   8.7430 155.1977  1.00270978 25197
SHIJIAN-17 (SJ-17)      
1 41838U 16065A   23266.81957133 -.00000112  00000+0  00000+0 0  9991
2 41838   3.1965  84.4908 0003232 130.6567 242.6003  1.00271041 25236
GOES 16                 
1 41866U 16071A   23266.52480053 -.00000251  00000+0  00000+0 0  9993
2 41866   0.0720 286.9697 0000587 288.8589 260.0093  1.00270334 25109
TIANLIAN 1-04           
1 41869U 16072A   23266.53710009  .00000028  00000+0  00000+0 0  9996
2 41869   0.0588 244.0852 0029622 261.6920 226.4926  1.00272034 25314
WGS F8 (USA 272)        
1 41879U 16075A   23266.93591326 -.00000207  00000+0  00000+0 0  9993
2 41879   0.0129 103.3248 0000120  85.2733 300.6397  1.00270613 24920
